$$SOE
2459580.500000000, A.D. 2022-Jan-01 00:00:00.0000, 3.455993046566256E+08, 2.343370024787578E+08, 5.005841752428745E+07,
2459587.500000000, A.D. 2022-Jan-08 00:00:00.0000, 3.398266847863974E+08, 2.430570170044191E+08, 4.942811689361362E+07,
2459594.500000000, A.D. 2022-Jan-15 00:00:00.0000, 3.338325387527823E+08, 2.516185086863914E+08, 4.876558514714770E+07,
2459601.500000000, A.D. 2022-Jan-22 00:00:00.0000, 3.276210210541052E+08, 2.600160810196725E+08, 4.807128979866894E+07,
2459608.500000000, A.D. 2022-Jan-29 00:00:00.0000, 3.211963982880616E+08, 2.682444422531411E+08, 4.734571504806502E+07,
2459615.500000000, A.D. 2022-Feb-05 00:00:00.0000, 3.145630449028316E+08, 2.762984061788813E+08, 4.658936168049200E+07,
2459622.500000000, A.D. 2022-Feb-12 00:00:00.0000, 3.077254411532490E+08, 2.841728918389892E+08, 4.580274668473373E+07,
2459629.500000000, A.D. 2022-Feb-19 00:00:00.0000, 3.006881719347099E+08, 2.918629245200899E+08, 4.498640290491511E+07,
2459636.500000000, A.D. 2022-Feb-26 00:00:00.0000, 2.934559251801966E+08, 2.993636373154689E+08, 4.414087878618962E+07,
2459643.500000000, A.D. 2022-Mar-05 00:00:00.0000, 2.860334899775606E+08, 3.066702726414050E+08, 4.326673814901946E+07,
2459650.500000000, A.D. 2022-Mar-12 00:00:00.0000, 2.784257546269949E+08, 3.137781836452023E+08, 4.236455996589953E+07,
2459657.500000000, A.D. 2022-Mar-19 00:00:00.0000, 2.706377047077119E+08, 3.206828355359573E+08, 4.143493813579485E+07,
2459664.500000000, A.D. 2022-Mar-26 00:00:00.0000, 2.626744211739855E+08, 3.273798068350030E+08, 4.047848125323476E+07,
2459671.500000000, A.D. 2022-Apr-02 00:00:00.0000, 2.545410785459529E+08, 3.338647904931087E+08, 3.949581236080049E+07,
2459678.500000000, A.D. 2022-Apr-09 00:00:00.0000, 2.462429434649738E+08, 3.401335948825161E+08, 3.848756866007860E+07,
2459685.500000000, A.D. 2022-Apr-16 00:00:00.0000, 2.377853739692943E+08, 3.461821453210016E+08, 3.745440120139243E+07,
2459692.500000000, A.D. 2022-Apr-23 00:00:00.0000, 2.291738182191750E+08, 3.520064872125724E+08, 3.639697475640674E+07,
2459699.500000000, A.D. 2022-Apr-30 00:00:00.0000, 2.204138107953615E+08, 3.576027885594025E+08, 3.531596786088254E+07,
2459706.500000000, A.D. 2022-May-07 00:00:00.0000, 2.115109696301112E+08, 3.629673398770590E+08, 3.421207258577918E+07,
2459713.500000000, A.D. 2022-May-14 00:00:00.0000, 2.024709949604811E+08, 3.680965545545499E+08, 3.308599415732622E+07,
2459720.500000000, A.D. 2022-May-21 00:00:00.0000, 1.932996682698209E+08, 3.729869704175158E+08, 3.193845067354876E+07,
2459727.500000000, A.D. 2022-May-28 00:00:00.0000, 1.840028507344719E+08, 3.776352515366060E+08, 3.077017288235198E+07,
2459734.500000000, A.D. 2022-Jun-04 00:00:00.0000, 1.745864814492309E+08, 3.820381899698222E+08, 2.958190396988288E+07,
2459741.500000000, A.D. 2022-Jun-11 00:00:00.0000, 1.650565755729220E+08, 3.861927074425476E+08, 2.837439934576449E+07,
2459748.500000000, A.D. 2022-Jun-18 00:00:00.0000, 1.554192224293436E+08, 3.900958569799280E+08, 2.714842642241901E+07,
2459755.500000000, A.D. 2022-Jun-25 00:00:00.0000, 1.456805835894490E+08, 3.937448244597774E+08, 2.590476438276449E+07,
2459762.500000000, A.D. 2022-Jul-02 00:00:00.0000, 1.358468910650772E+08, 3.971369300217503E+08, 2.464420391836450E+07,
2459769.500000000, A.D. 2022-Jul-09 00:00:00.0000, 1.259244460009470E+08, 4.002696295118560E+08, 2.336754691650423E+07,
2459776.500000000, A.D. 2022-Jul-16 00:00:00.0000, 1.159196178075488E+08, 4.031405170476174E+08, 2.207560618944156E+07,
2459783.500000000, A.D. 2022-Jul-23 00:00:00.0000, 1.058388415353675E+08, 4.057473287803235E+08, 2.076920545303583E+07,
2459790.500000000, A.D. 2022-Jul-30 00:00:00.0000, 9.568861356949209E+07, 4.080879444959519E+08, 1.944917927230859E+07,
2459797.500000000, A.D. 2022-Aug-06 00:00:00.0000, 8.547548923840208E+07, 4.101603877035706E+08, 1.811637269663140E+07,
2459804.500000000, A.D. 2022-Aug-13 00:00:00.0000, 7.520608151158422E+07, 4.119628269643357E+08, 1.677164088443184E+07,
2459811.500000000, A.D. 2022-Aug-20 00:00:00.0000, 6.488705921095598E+07, 4.134935779529673E+08, 1.541584881969017E+07,
2459818.500000000, A.D. 2022-Aug-27 00:00:00.0000, 5.452514479673231E+07, 4.147511055236627E+08, 1.404987105470055E+07,
2459825.500000000, A.D. 2022-Sep-03 00:00:00.0000, 4.412711196979156E+07, 4.157340256716208E+08, 1.267459144756585E+07,
2459832.500000000, A.D. 2022-Sep-10 00:00:00.0000, 3.369978317701183E+07, 4.164411074162211E+08, 1.129090288805890E+07,
2459839.500000000, A.D. 2022-Sep-17 00:00:00.0000, 2.325002704655135E+07, 4.168712746046562E+08, 9.899707008517325E+06,
2459846.500000000, A.D. 2022-Sep-24 00:00:00.0000, 1.278475581091162E+07, 4.170236075836505E+08, 8.501913869284630E+06,
2459853.500000000, A.D. 2022-Oct-01 00:00:00.0000, 2.310922954250749E+06, 4.168973447142035E+08, 7.098441593966365E+06,
2459860.500000000, A.D. 2022-Oct-08 00:00:00.0000, -8.164478513216224E+06, 4.164918842488341E+08, 5.690215958907127E+06,
2459867.500000000, A.D. 2022-Oct-15 00:00:00.0000, -1.863441808949079E+07, 4.158067877690699E+08, 4.278170119294435E+06,
2459874.500000000, A.D. 2022-Oct-22 00:00:00.0000, -2.909183230747404E+07, 4.148417834947153E+08, 2.863244533229053E+06,
2459881.500000000, A.D. 2022-Oct-29 00:00:00.0000, -3.952962926190117E+07, 4.135967668634486E+08, 1.446386642151088E+06,
2459888.500000000, A.D. 2022-Nov-05 00:00:00.0000, -4.994069104450942E+07, 4.120718011208150E+08, 2.855033844265342E+04,
2459895.500000000, A.D. 2022-Nov-12 00:00:00.0000, -6.031787605516722E+07, 4.102671191871462E+08, -1.389304497149587E+06,
2459902.500000000, A.D. 2022-Nov-19 00:00:00.0000, -7.065402191136092E+07, 4.081831258422823E+08, -2.806212401139826E+06,
2459909.500000000, A.D. 2022-Nov-26 00:00:00.0000, -8.094194869810049E+07, 4.058203998256527E+08, -4.221202733175725E+06,
2459916.500000000, A.D. 2022-Dec-03 00:00:00.0000, -9.117446239644261E+07, 4.031796958356751E+08, -5.633300098987103E+06,
2459923.500000000, A.D. 2022-Dec-10 00:00:00.0000, -1.013443584489535E+08, 4.002619464426379E+08, -7.041524793711454E+06,
2459930.500000000, A.D. 2022-Dec-17 00:00:00.0000, -1.114444254408255E+08, 3.970682638852179E+08, -8.444893270529956E+06,
2459937.500000000, A.D. 2022-Dec-24 00:00:00.0000, -1.214674487902403E+08, 3.935999416793807E+08, -9.842418650600582E+06,
2459944.500000000, A.D. 2022-Dec-31 00:00:00.0000, -1.314062140930406E+08, 3.898584561409942E+08, -1.123311129879743E+07,
2459951.500000000, A.D. 2023-Jan-07 00:00:00.0000, -1.412535100019312E+08, 3.858454687781768E+08, -1.261597939834854E+07,
2459958.500000000, A.D. 2023-Jan-14 00:00:00.0000, -1.510021326095943E+08, 3.815628300446887E+08, -1.399002930404447E+07,
2459965.500000000, A.D. 2023-Jan-21 00:00:00.0000, -1.606448919798904E+08, 3.770125812729154E+08, -1.535426587447114E+07,
2459972.500000000, A.D. 2023-Jan-28 00:00:00.0000, -1.701746171614834E+08, 3.721969545772785E+08, -1.670769313506213E+07,
2459979.500000000, A.D. 2023-Feb-04 00:00:00.0000, -1.795841598992422E+08, 3.671183737484037E+08, -1.804931500558369E+07,
2459986.500000000, A.D. 2023-Feb-11 00:00:00.0000, -1.888663988418895E+08, 3.617794559399617E+08, -1.937813594391637E+07,
2459993.500000000, A.D. 2023-Feb-18 00:00:00.0000, -1.980142443104894E+08, 3.561830133177425E+08, -2.069316156786986E+07,
2460000.500000000, A.D. 2023-Feb-25 00:00:00.0000, -2.070206433663861E+08, 3.503320545014035E+08, -2.199339929251824E+07,
2460007.500000000, A.D. 2023-Mar-04 00:00:00.0000, -2.158785850772303E+08, 3.442297858100469E+08, -2.327785899110121E+07,
2460014.500000000, A.D. 2023-Mar-11 00:00:00.0000, -2.245811059525528E+08, 3.378796123040369E+08, -2.454555368224576E+07,
2460021.500000000, A.D. 2023-Mar-18 00:00:00.0000, -2.331212955013629E+08, 3.312851385648705E+08, -2.579550025196937E+07,
2460028.500000000, A.D. 2023-Mar-25 00:00:00.0000, -2.414923017075460E+08, 3.244501691566792E+08, -2.702672023299918E+07,
2460035.500000000, A.D. 2023-Apr-01 00:00:00.0000, -2.496873359971495E+08, 3.173787091531641E+08, -2.823824064818053E+07,
2460042.500000000, A.D. 2023-Apr-08 00:00:00.0000, -2.576996783114305E+08, 3.100749659456223E+08, -2.942909476151609E+07,
2460049.500000000, A.D. 2023-Apr-15 00:00:00.0000, -2.655226846197212E+08, 3.025433512180058E+08, -3.059832261320888E+07,
2460056.500000000, A.D. 2023-Apr-22 00:00:00.0000, -2.731497950542434E+08, 2.947884800261342E+08, -3.174497175321217E+07,
2460063.500000000, A.D. 2023-Apr-29 00:00:00.0000, -2.805745399234467E+08, 2.868151692156616E+08, -3.286809823758525E+07,
2460070.500000000, A.D. 2023-May-06 00:00:00.0000, -2.877905453630083E+08, 2.786284369443998E+08, -3.396676757946944E+07,
2460077.500000000, A.D. 2023-May-13 00:00:00.0000, -2.947915396005000E+08, 2.702335024050121E+08, -3.504005563812692E+07,
2460084.500000000, A.D. 2023-May-20 00:00:00.0000, -3.015713595967348E+08, 2.616357852474484E+08, -3.608704950780809E+07,
2460091.500000000, A.D. 2023-May-27 00:00:00.0000, -3.081239578658555E+08, 2.528409046629513E+08, -3.710684842693868E+07,
2460098.500000000, A.D. 2023-Jun-03 00:00:00.0000, -3.144434094098070E+08, 2.438546781469784E+08, -3.809856471096133E+07,
2460105.500000000, A.D. 2023-Jun-10 00:00:00.0000, -3.205239187345825E+08, 2.346831199176484E+08, -3.906132471183406E+07,
2460112.500000000, A.D. 2023-Jun-17 00:00:00.0000, -3.263598268491400E+08, 2.253324389188843E+08, -3.999426981648328E+07,
2460119.500000000, A.D. 2023-Jun-24 00:00:00.0000, -3.319456179161566E+08, 2.158090364525062E+08, -4.089655750788503E+07,
2460126.500000000, A.D. 2023-Jul-01 00:00:00.0000, -3.372759252901712E+08, 2.061195042556480E+08, -4.176736244295585E+07,
2460133.500000000, A.D. 2023-Jul-08 00:00:00.0000, -3.423455386065727E+08, 1.962706238342319E+08, -4.260587732537013E+07,
2460140.500000000, A.D. 2023-Jul-15 00:00:00.0000, -3.471494131882355E+08, 1.862693642141388E+08, -4.341131368685238E+07,
2460147.500000000, A.D. 2023-Jul-22 00:00:00.0000, -3.516826782334085E+08, 1.761228770680951E+08, -4.418290298278040E+07,
$$EOE